COMMENT,ORIGINATOR,NORAD_CAT_ID,OBJECT_NAME,OBJECT_TYPE,CLASSIFICATION_TYPE,INTLDES,EPOCH,EPOCH_MICROSECONDS,MEAN_MOTION,ECCENTRICITY,INCLINATION,RA_OF_ASC_NODE,ARG_OF_PERICENTER,MEAN_ANOMALY,EPHEMERIS_TYPE,ELEMENT_SET_NO,REV_AT_EPOCH,BSTAR,MEAN_MOTION_DOT,MEAN_MOTION_DDOT,FILE,TLE_LINE0,TLE_LINE1,TLE_LINE2,OBJECT_ID,OBJECT_NUMBER,SEMIMAJOR_AXIS,PERIOD,APOGEE,PERIGEE
"GENERATED VIA SPACETRACK.ORG API","JSPOC","26032","KOMPSAT","PAYLOAD","U","99070A","2016-01-08 13:02:21","698016","14.68698147","0.0005113","97.8006","169.4943","148.2218","211.9298","0","999","85875","7.2145e-05","3.74e-06","0","1977656","0 KOMPSAT","1 26032U 99070A   16008.54330669  .00000374  00000-0  72145-4 0  9996","2 26032  97.8006 169.4943 0005113 148.2218 211.9298 14.68698147858756","1999-070A","26032","7043.364","98.046","668.830","661.627"
"GENERATED VIA SPACETRACK.ORG API","JSPOC","26591","ARIANE 44LP R/B","ROCKET BODY","U","00068B","2016-01-08 13:02:37","154976","2.90266031","0.6779647","6.4869","165.0624","23.7094","356.5044","0","999","14281","0.00047884","1.13e-05","0","1977642","0 ARIANE 44LP R/B","1 26591U 00068B   16008.54348559  .00001130  00000-0  47884-3 0  9994","2 26591   6.4869 165.0624 6779647  23.7094 356.5044  2.90266031142815","2000-068B","26591","20758.901","496.096","28454.568","306.964"
"GENERATED VIA SPACETRACK.ORG API","JSPOC","28371","SAUDISAT 2","PAYLOAD","U","04025F","2016-01-08 13:02:53","551104","14.54135864","0.0025933","98.0591","333.9972","165.4028","194.7902","0","999","61144","2.5583e-05","6.5e-07","0","1977654","0 SAUDISAT 2","1 28371U 04025F   16008.54367536  .00000065  00000-0  25583-4 0  9994","2 28371  98.0591 333.9972 0025933 165.4028 194.7902 14.54135864611448","2004-025F","28371","7090.309","99.027","730.561","693.787"
"GENERATED VIA SPACETRACK.ORG API","JSPOC","37841","SRMSAT","PAYLOAD","U","11058D","2016-01-08 13:03:04","687200","14.10518622","0.0012062","19.9726","68.4263","67.9726","75.1482","0","999","21888","2.9274e-05","3.17e-06","0","1978186","0 SRMSAT","1 37841U 11058D   16008.54380425 +.00000317 +00000-0 +29274-4 0  9993","2 37841 019.9726 068.4263 0012062 067.9726 075.1482 14.10518622218880","2011-058D","37841","7235.734","102.090","866.327","848.871"
"GENERATED VIA SPACETRACK.ORG API","JSPOC","39420","OPTOS","PAYLOAD","U","13066E","2016-01-08 13:03:08","245152","14.61448091","0.0137652","97.6864","45.3947","250.6351","107.9927","0","999","11358","8.7733e-05","4.46e-06","0","1978186","0 OPTOS","1 39420U 13066E   16008.54384543 +.00000446 +00000-0 +87733-4 0  9991","2 39420 097.6864 045.3947 0137652 250.6351 107.9927 14.61448091113589","2013-066E","39420","7066.639","98.532","785.777","591.230"
"GENERATED VIA SPACETRACK.ORG API","JSPOC","27373","IRIDIUM 90","PAYLOAD","U","02005B","2016-01-08 13:03:12","91680","14.42943542","0.0001897","86.4465","209.7521","80.0038","280.1376","0","999","73555","5.6649e-06","3.9e-07","0","1977657","0 IRIDIUM 90","1 27373U 02005B   16008.54388995  .00000039  00000-0  56649-5 0  9992","2 27373  86.4465 209.7521 0001897  80.0038 280.1376 14.42943542735557","2002-005B","27373","7126.926","99.796","750.143","747.439"
"GENERATED VIA SPACETRACK.ORG API","JSPOC","27373","IRIDIUM 90","PAYLOAD","U","02005B","2016-01-08 13:03:12","91680","14.42943542","0.0001897","86.4465","209.7521","80.0038","280.1376","0","999","73555","5.6649e-06","3.9e-07","0","1977720","0 IRIDIUM 90","1 27373U 02005B   16008.54388995  .00000039  00000-0  56649-5 0  9992","2 27373  86.4465 209.7521 0001897  80.0038 280.1376 14.42943542735557","2002-005B","27373","7126.926","99.796","750.143","747.439"
"GENERATED VIA SPACETRACK.ORG API","JSPOC","27453","NOAA 17","PAYLOAD","U","02032A","2016-01-08 13:03:24","458976","14.24917409","0.0010761","98.3635","349.6092","304.0545","55.9613","0","999","70390","2.4519e-05","1.6e-07","0","1977713","0 NOAA 17","1 27453U 02032A   16008.54403309  .00000016  00000-0  24519-4 0  9993","2 27453  98.3635 349.6092 0010761 304.0545  55.9613 14.24917409703905","2002-032A","27453","7186.907","101.058","816.506","801.038"
"GENERATED VIA SPACETRACK.ORG API","JSPOC","40299","HODOYOSHI 1","PAYLOAD","U","14070B","2016-01-08 13:03:29","831328","15.20580136","0.0014844","97.4425","92.5171","129.4172","326.8351","0","999","6501","0.00010791","2.3e-05","0","1977684","0 HODOYOSHI 1","1 40299U 14070B   16008.54409527  .00002300  00000-0  10791-3 0  9993","2 40299  97.4425  92.5171 0014844 129.4172 326.8351 15.20580136 65010","2014-070B","40299","6882.226","94.700","514.307","493.875"
"GENERATED VIA SPACETRACK.ORG API","JSPOC","28980","ST5-A","PAYLOAD","U","06008A","2016-01-08 13:03:44","752608","11.16734128","0.2097307","105.5128","125.7533","157.0962","213.9392","0","999","38436","0.00074835","0.00015474","0","1978186","0 ST5-A","1 28980U 06008A   16008.54426797 +.00015474 +00000-0 +74835-3 0  9991","2 28980 105.5128 125.7533 2097307 157.0962 213.9392 11.16734128384362","2006-008A","28980","8454.773","128.947","3849.864","303.413"
"GENERATED VIA SPACETRACK.ORG API","JSPOC","11509","COSMOS 1124","PAYLOAD","U","79077A","2016-01-08 13:04:11","293824","2.00997003","0.6287476","66.7805","18.9408","59.5846","347.9426","0","999","26682","0","1.31e-06","0","1978186","0 COSMOS 1124","1 11509U 79077A   16008.54457516 +.00000131 +00000-0 +00000-0 0  9993","2 11509 066.7805 018.9408 6287476 059.5846 347.9426 02.00997003266826","1979-077A","11509","26522.153","716.428","36819.759","3468.278"
"GENERATED VIA SPACETRACK.ORG API","JSPOC","25676","GLOBALSTAR M045","PAYLOAD","U","99019A","2016-01-08 13:04:43","705056","12.26934389","2.55e-05","51.9984","50.3574","226.144","285.6598","0","999","77042","-0.00031299","-1.29e-06","0","1978186","0 GLOBALSTAR M045","1 25676U 99019A   16008.54495029 -.00000129 +00000-0 -31299-3 0  9998","2 25676 051.9984 050.3574 0000255 226.1440 285.6598 12.26934389770429","1999-019A","25676","7940.617","117.365","1562.685","1562.280"
"GENERATED VIA SPACETRACK.ORG API","JSPOC","37811","ARIANE 5 R/B","ROCKET BODY","U","11049C","2016-01-08 13:04:55","312896","2.42283039","0.7180883","2.3333","184.2544","99.7128","340.7908","0","999","3697","0.0014973","0.00010193","0","1978186","0 ARIANE 5 R/B","1 37811U 11049C   16008.54508464 +.00010193 +00000-0 +14973-2 0  9996","2 37811 002.3333 184.2544 7180883 099.7128 340.7908 02.42283039036974","2011-049C","37811","23416.384","594.346","33853.280","223.217"
"GENERATED VIA SPACETRACK.ORG API","JSPOC","39260","FENGYUN 3C","PAYLOAD","U","13052A","2016-01-08 13:05:37","748256","14.19596037","0.0001517","98.7104","82.6183","77.4876","282.6472","0","999","11880","2.1459e-05","2e-08","0","1977644","0 FENGYUN 3C","1 39260U 13052A   16008.54557579  .00000002  00000-0  21459-4 0  9990","2 39260  98.7104  82.6183 0001517  77.4876 282.6472 14.19596037118806","2013-052A","39260","7204.856","101.437","827.814","825.628"
"GENERATED VIA SPACETRACK.ORG API","JSPOC","38745","EXPRESS MD2","PAYLOAD","U","12044B","2016-01-08 13:05:46","602528","10.72420884","0.2353396","49.9079","235.6023","256.7609","76.2184","0","999","13041","0.00025756","9.044e-05","1.8288e-06","1977650","0 EXPRESS MD2","1 38745U 12044B   16008.54567827  .00009044  18288-5  25756-3 0  9994","2 38745  49.9079 235.6023 2353396 256.7609  76.2184 10.72420884130417","2012-044B","38745","8686.103","134.275","4352.152","263.784"
"GENERATED VIA SPACETRACK.ORG API","JSPOC","25660","SL-12 R/B(2)","ROCKET BODY","U","99013D","2016-01-08 13:05:51","819360","1.74920816","0.4613875","14.5674","53.5253","220.2091","257.6473","0","999","10739","0","-1.3e-06","0","1977765","0 SL-12 R/B(2)","1 25660U 99013D   16008.54573865 -.00000130  00000-0  00000+0 0  9993","2 25660  14.5674  53.5253 4613875 220.2091 257.6473  1.74920816107393","1999-013D","25660","29096.506","823.229","36143.135","9293.606"
"GENERATED VIA SPACETRACK.ORG API","JSPOC","19650","SL-16 R/B","ROCKET BODY","U","88102B","2016-01-08 13:05:54","401856","14.15727762","0.0016621","70.9997","40.3489","263.3585","96.5646","0","999","40132","0.00015596","2.59e-06","0","1978186","0 SL-16 R/B","1 19650U 88102B   16008.54576854 +.00000259 +00000-0 +15596-3 0  9994","2 19650 070.9997 040.3489 0016621 263.3585 096.5646 14.15727762401328","1988-102B","19650","7217.974","101.714","851.836","827.842"
"GENERATED VIA SPACETRACK.ORG API","JSPOC","22969","METEOR 3-6","PAYLOAD","U","94003A","2016-01-08 13:06:17","927712","13.16973985","0.0015641","82.5626","258.5924","24.2308","335.9546","0","999","5536","1.0312e-05","1.6e-07","0","1977641","0 METEOR 3-6","1 22969U 94003A   16008.54604083  .00000016  00000-0  10312-4 0  9997","2 22969  82.5626 258.5924 0015641  24.2308 335.9546 13.16973985 55366","1994-003A","22969","7574.437","109.341","1208.149","1184.455"
"GENERATED VIA SPACETRACK.ORG API","JSPOC","12115","SL-8 R/B","ROCKET BODY","U","80102J","2016-01-08 13:06:19","980576","12.52358552","0.002052","73.9893","237.1374","286.0631","89.6196","0","999","60220","0.00052606","6.6e-07","0","1977660","0 SL-8 R/B","1 12115U 80102J   16008.54606459  .00000066  00000-0  52606-3 0  9999","2 12115  73.9893 237.1374 0020520 286.0631  89.6196 12.52358552602200","1980-102J","12115","7832.782","114.983","1470.720","1438.574"
"GENERATED VIA SPACETRACK.ORG API","JSPOC","18339","COSMOS 1880","PAYLOAD","U","87074F","2016-01-08 13:06:34","996032","12.6544948","0.0009623","82.5594","195.3819","214.2548","165.7425","0","999","30889","0.00011124","3.1e-07","0","1977621","0 COSMOS 1880","1 18339U 87074F   16008.54623838  .00000031  00000-0  11124-3 0  9990","2 18339  82.5594 195.3819 0009623 214.2548 165.7425 12.65449480308892","1987-074F","18339","7778.669","113.793","1408.019","1393.048"
